start=new Date('2022-08-22T00:00:00.000Z').valueOf();
sats=[{"GP_ID":"210690761","SEMIMAJOR_AXIS":"6925.366","ECCENTRICITY":"0.00013400","LAUNCH_DATE":"2021-01-20","MEAN_MOTION_DOT":"-0.00000875","ELEMENT_SET_NO":"999","REV_AT_EPOCH":"8773","CENTER_NAME":"EARTH","MEAN_ELEMENT_THEORY":"SGP4","INCLINATION":"53.0550","APOAPSIS":"548.159","TLE_LINE1":"1 47357U 21005J   22233.88949234 -.00000875  00000-0 -39849-4 0  9992","MEAN_ANOMALY":"281.6957","DECAY_DATE":null,"RCS_SIZE":"LARGE","OBJECT_NAME":"STARLINK-2050","CLASSIFICATION_TYPE":"U","OBJECT_ID":"2021-005J","FILE":"3542671","PERIOD":"95.593","BSTAR":"-0.00003984900000","OBJECT_TYPE":"PAYLOAD","EPOCH":"2022-08-21T21:20:52.138176","TLE_LINE2":"2 47357  53.0550 118.6914 0001340  78.4182 281.6957 15.06394253 87735","NORAD_CAT_ID":"47357","COUNTRY_CODE":"US","MEAN_MOTION":"15.06394253","RA_OF_ASC_NODE":"118.6914","MEAN_MOTION_DDOT":"0.0000000000000","SITE":"AFETR","EPHEMERIS_TYPE":"0","REF_FRAME":"TEME","PERIAPSIS":"546.303","ARG_OF_PERICENTER":"78.4182","TIME_SYSTEM":"UTC"},{"EPHEMERIS_TYPE":"0","REF_FRAME":"TEME","PERIAPSIS":"546.127","ARG_OF_PERICENTER":"71.9004","TIME_SYSTEM":"UTC","BSTAR":"0.00020626000000","OBJECT_TYPE":"PAYLOAD","EPOCH":"2022-08-21T21:23:29.160672","TLE_LINE2":"2 47358  53.0562  88.6877 0001612  71.9004 288.2160 15.06390290 88159","NORAD_CAT_ID":"47358","COUNTRY_CODE":"US","MEAN_MOTION":"15.06390290","RA_OF_ASC_NODE":"88.6877","SITE":"AFETR","MEAN_MOTION_DDOT":"0.0000000000000","TLE_LINE1":"1 47358U 21005K   22233.89130973  .00002791  00000-0  20626-3 0  9995","MEAN_ANOMALY":"288.2160","APOAPSIS":"548.360","DECAY_DATE":null,"RCS_SIZE":"LARGE","OBJECT_NAME":"STARLINK-2055","CLASSIFICATION_TYPE":"U","OBJECT_ID":"2021-005K","FILE":"3542671","PERIOD":"95.593","SEMIMAJOR_AXIS":"6925.378","GP_ID":"210691010","ECCENTRICITY":"0.00016120","LAUNCH_DATE":"2021-01-20","MEAN_MOTION_DOT":"0.00002791","ELEMENT_SET_NO":"999","REV_AT_EPOCH":"8815","MEAN_ELEMENT_THEORY":"SGP4","CENTER_NAME":"EARTH","INCLINATION":"53.0562"},{"EPHEMERIS_TYPE":"0","REF_FRAME":"TEME","PERIAPSIS":"546.328","ARG_OF_PERICENTER":"70.8930","TIME_SYSTEM":"UTC","OBJECT_TYPE":"PAYLOAD","BSTAR":"-0.00001733700000","EPOCH":"2022-08-21T20:04:35.472288","TLE_LINE2":"2 47359  53.0542 113.9243 0001342  70.8930 289.2204 15.06385836 87792","NORAD_CAT_ID":"47359","COUNTRY_CODE":"US","MEAN_MOTION":"15.06385836","RA_OF_ASC_NODE":"113.9243","SITE":"AFETR","MEAN_MOTION_DDOT":"0.0000000000000","APOAPSIS":"548.186","TLE_LINE1":"1 47359U 21005L   22233.83652167 -.00000540  00000-0 -17337-4 0  9992","MEAN_ANOMALY":"289.2204","DECAY_DATE":null,"RCS_SIZE":"LARGE","CLASSIFICATION_TYPE":"U","OBJECT_NAME":"STARLINK-2069","FILE":"3542671","OBJECT_ID":"2021-005L","PERIOD":"95.593","GP_ID":"210691263","SEMIMAJOR_AXIS":"6925.392","ECCENTRICITY":"0.00013420","LAUNCH_DATE":"2021-01-20","MEAN_MOTION_DOT":"-0.00000540","ELEMENT_SET_NO":"999","CENTER_NAME":"EARTH","REV_AT_EPOCH":"8779","MEAN_ELEMENT_THEORY":"SGP4","INCLINATION":"53.0542"},{"COUNTRY_CODE":"US","MEAN_MOTION":"15.06384146","RA_OF_ASC_NODE":"83.9111","SITE":"AFETR","MEAN_MOTION_DDOT":"0.0000000000000","OBJECT_TYPE":"PAYLOAD","BSTAR":"0.00013667000000","EPOCH":"2022-08-21T20:13:52.705632","TLE_LINE2":"2 47360  53.0543  83.9111 0001473  76.7399 283.3754 15.06384146 88221","NORAD_CAT_ID":"47360","PERIAPSIS":"546.242","ARG_OF_PERICENTER":"76.7399","TIME_SYSTEM":"UTC","EPHEMERIS_TYPE":"0","REF_FRAME":"TEME","ELEMENT_SET_NO":"999","MEAN_ELEMENT_THEORY":"SGP4","REV_AT_EPOCH":"8822","CENTER_NAME":"EARTH","INCLINATION":"53.0543","GP_ID":"210690012","SEMIMAJOR_AXIS":"6925.397","ECCENTRICITY":"0.00014730","LAUNCH_DATE":"2021-01-20","MEAN_MOTION_DOT":"0.00001754","CLASSIFICATION_TYPE":"U","OBJECT_NAME":"STARLINK-2070","FILE":"3542671","OBJECT_ID":"2021-005M","PERIOD":"95.593","TLE_LINE1":"1 47360U 21005M   22233.84297113  .00001754  00000-0  13667-3 0  9998","APOAPSIS":"548.282","MEAN_ANOMALY":"283.3754","DECAY_DATE":null,"RCS_SIZE":"LARGE"},{"ARG_OF_PERICENTER":"87.2802","PERIAPSIS":"546.365","TIME_SYSTEM":"UTC","EPHEMERIS_TYPE":"0","REF_FRAME":"TEME","MEAN_MOTION":"15.06385639","COUNTRY_CODE":"US","SITE":"AFETR","MEAN_MOTION_DDOT":"0.0000000000000","RA_OF_ASC_NODE":"88.6541","EPOCH":"2022-08-21T21:35:28.419072","BSTAR":"0.00000261290000","OBJECT_TYPE":"PAYLOAD","NORAD_CAT_ID":"47361","TLE_LINE2":"2 47361  53.0547  88.6541 0001289  87.2802 272.8335 15.06385639 88154","OBJECT_ID":"2021-005N","FILE":"3542671","OBJECT_NAME":"STARLINK-2071","CLASSIFICATION_TYPE":"U","PERIOD":"95.593","MEAN_ANOMALY":"272.8335","TLE_LINE1":"1 47361U 21005N   22233.89963448 -.00000242  00000-0  26129-5 0  9996","APOAPSIS":"548.150","RCS_SIZE":"LARGE","DECAY_DATE":null,"CENTER_NAME":"EARTH","REV_AT_EPOCH":"8815","MEAN_ELEMENT_THEORY":"SGP4","ELEMENT_SET_NO":"999","INCLINATION":"53.0547","ECCENTRICITY":"0.00012890","GP_ID":"210690262","SEMIMAJOR_AXIS":"6925.393","MEAN_MOTION_DOT":"-0.00000242","LAUNCH_DATE":"2021-01-20"},{"TIME_SYSTEM":"UTC","ARG_OF_PERICENTER":"81.4821","PERIAPSIS":"546.376","REF_FRAME":"TEME","EPHEMERIS_TYPE":"0","MEAN_MOTION_DDOT":"0.0000000000000","SITE":"AFETR","RA_OF_ASC_NODE":"118.7467","MEAN_MOTION":"15.06391383","COUNTRY_CODE":"US","NORAD_CAT_ID":"47362","TLE_LINE2":"2 47362  53.0548 118.7467 0001248  81.4821 278.6309 15.06391383 87731","EPOCH":"2022-08-21T21:04:56.627616","BSTAR":"0.00016714000000","OBJECT_TYPE":"PAYLOAD","PERIOD":"95.593","OBJECT_ID":"2021-005P","FILE":"3542671","OBJECT_NAME":"STARLINK-2076","CLASSIFICATION_TYPE":"U","RCS_SIZE":"LARGE","DECAY_DATE":null,"APOAPSIS":"548.104","TLE_LINE1":"1 47362U 21005P   22233.87843319  .00002208  00000-0  16714-3 0  9999","MEAN_ANOMALY":"278.6309","INCLINATION":"53.0548","REV_AT_EPOCH":"8773","MEAN_ELEMENT_THEORY":"SGP4","CENTER_NAME":"EARTH","ELEMENT_SET_NO":"999","MEAN_MOTION_DOT":"0.00002208","LAUNCH_DATE":"2021-01-20","ECCENTRICITY":"0.00012480","GP_ID":"210691510","SEMIMAJOR_AXIS":"6925.375"},{"ELEMENT_SET_NO":"999","REV_AT_EPOCH":"8773","MEAN_ELEMENT_THEORY":"SGP4","CENTER_NAME":"EARTH","INCLINATION":"53.0541","GP_ID":"210691763","SEMIMAJOR_AXIS":"6925.418","ECCENTRICITY":"0.00011960","LAUNCH_DATE":"2021-01-20","MEAN_MOTION_DOT":"0.00003522","OBJECT_NAME":"STARLINK-2077","CLASSIFICATION_TYPE":"U","OBJECT_ID":"2021-005Q","FILE":"3542671","PERIOD":"95.594","TLE_LINE1":"1 47363U 21005Q   22233.88212823  .00003522  00000-0  25534-3 0  9991","MEAN_ANOMALY":"288.9800","APOAPSIS":"548.111","DECAY_DATE":null,"RCS_SIZE":"LARGE","COUNTRY_CODE":"US","MEAN_MOTION":"15.06377303","RA_OF_ASC_NODE":"118.7091","MEAN_MOTION_DDOT":"0.0000000000000","SITE":"AFETR","BSTAR":"0.00025534000000","OBJECT_TYPE":"PAYLOAD","EPOCH":"2022-08-21T21:10:15.879072","TLE_LINE2":"2 47363  53.0541 118.7091 0001196  71.1318 288.9800 15.06377303 87733","NORAD_CAT_ID":"47363","PERIAPSIS":"546.455","ARG_OF_PERICENTER":"71.1318","TIME_SYSTEM":"UTC","EPHEMERIS_TYPE":"0","REF_FRAME":"TEME"},{"INCLINATION":"53.0551","ELEMENT_SET_NO":"999","REV_AT_EPOCH":"8772","MEAN_ELEMENT_THEORY":"SGP4","CENTER_NAME":"EARTH","LAUNCH_DATE":"2021-01-20","MEAN_MOTION_DOT":"0.00001697","SEMIMAJOR_AXIS":"6925.377","GP_ID":"210690512","ECCENTRICITY":"0.00014110","PERIOD":"95.593","OBJECT_NAME":"STARLINK-2081","CLASSIFICATION_TYPE":"U","OBJECT_ID":"2021-005T","FILE":"3542671","DECAY_DATE":null,"RCS_SIZE":"LARGE","TLE_LINE1":"1 47366U 21005T   22233.84157610  .00001697  00000-0  13282-3 0  9990","MEAN_ANOMALY":"280.3320","APOAPSIS":"548.219","RA_OF_ASC_NODE":"118.9146","MEAN_MOTION_DDOT":"0.0000000000000","SITE":"AFETR","COUNTRY_CODE":"US","MEAN_MOTION":"15.06390630","TLE_LINE2":"2 47366  53.0551 118.9146 0001411  79.7828 280.3320 15.06390630 87720","NORAD_CAT_ID":"47366","BSTAR":"0.00013282000000","OBJECT_TYPE":"PAYLOAD","EPOCH":"2022-08-21T20:11:52.175040","TIME_SYSTEM":"UTC","PERIAPSIS":"546.265","ARG_OF_PERICENTER":"79.7828","REF_FRAME":"TEME","EPHEMERIS_TYPE":"0"},{"NORAD_CAT_ID":"47367","TLE_LINE2":"2 47367  53.0537 118.7859 0001616  70.5994 289.5169 15.06383852 87735","EPOCH":"2022-08-21T20:49:02.483904","BSTAR":"0.00009335500000","OBJECT_TYPE":"PAYLOAD","SITE":"AFETR","MEAN_MOTION_DDOT":"0.0000000000000","RA_OF_ASC_NODE":"118.7859","MEAN_MOTION":"15.06383852","COUNTRY_CODE":"US","REF_FRAME":"TEME","EPHEMERIS_TYPE":"0","TIME_SYSTEM":"UTC","ARG_OF_PERICENTER":"70.5994","PERIAPSIS":"546.144","MEAN_MOTION_DOT":"0.00001109","LAUNCH_DATE":"2021-01-20","ECCENTRICITY":"0.00016160","GP_ID":"210690762","SEMIMAJOR_AXIS":"6925.398","INCLINATION":"53.0537","REV_AT_EPOCH":"8773","MEAN_ELEMENT_THEORY":"SGP4","CENTER_NAME":"EARTH","ELEMENT_SET_NO":"999","RCS_SIZE":"LARGE","DECAY_DATE":null,"TLE_LINE1":"1 47367U 21005U   22233.86738986  .00001109  00000-0  93355-4 0  9992","MEAN_ANOMALY":"289.5169","APOAPSIS":"548.382","PERIOD":"95.593","OBJECT_ID":"2021-005U","FILE":"3542671","OBJECT_NAME":"STARLINK-2082","CLASSIFICATION_TYPE":"U"},{"LAUNCH_DATE":"2021-01-20","MEAN_MOTION_DOT":"0.00001886","SEMIMAJOR_AXIS":"6925.399","GP_ID":"210691011","ECCENTRICITY":"0.00014420","INCLINATION":"53.0546","ELEMENT_SET_NO":"999","MEAN_ELEMENT_THEORY":"SGP4","REV_AT_EPOCH":"8773","CENTER_NAME":"EARTH","DECAY_DATE":null,"RCS_SIZE":"LARGE","TLE_LINE1":"1 47368U 21005V   22233.86001561  .00001886  00000-0  14552-3 0  9998","APOAPSIS":"548.263","MEAN_ANOMALY":"278.5649","PERIOD":"95.593","OBJECT_NAME":"STARLINK-2084","CLASSIFICATION_TYPE":"U","OBJECT_ID":"2021-005V","FILE":"3542671","TLE_LINE2":"2 47368  53.0546 118.8180 0001442  81.5504 278.5649 15.06383565 87732","NORAD_CAT_ID":"47368","BSTAR":"0.00014552000000","OBJECT_TYPE":"PAYLOAD","EPOCH":"2022-08-21T20:38:25.348704","RA_OF_ASC_NODE":"118.8180","MEAN_MOTION_DDOT":"0.0000000000000","SITE":"AFETR","COUNTRY_CODE":"US","MEAN_MOTION":"15.06383565","REF_FRAME":"TEME","EPHEMERIS_TYPE":"0","TIME_SYSTEM":"UTC","PERIAPSIS":"546.265","ARG_OF_PERICENTER":"81.5504"}];
